[{"OBJECT_NAME":"STARLINK-33576","OBJECT_ID":"2025-015T","EPOCH":"2026-03-09T23:25:22.288224","MEAN_MOTION":15.30212597,"ECCENTRICITY":0.0001302,"INCLINATION":53.1596,"RA_OF_ASC_NODE":321.2217,"ARG_OF_PERICENTER":86.0842,"MEAN_ANOMALY":274.0308,"EPHEMERIS_TYPE":0,"CLASSIFICATION_TYPE":"U","NORAD_CAT_ID":62775,"ELEMENT_SET_NO":999,"REV_AT_EPOCH":6446,"BSTAR":0.0011100189,"MEAN_MOTION_DOT":0.00032674,"MEAN_MOTION_DDOT":0},{"OBJECT_NAME":"OBJECT L","OBJECT_ID":"2024-024L","EPOCH":"2026-03-09T22:36:05.522976","MEAN_MOTION":15.29373491,"ECCENTRICITY":0.00073185,"INCLINATION":97.3169,"RA_OF_ASC_NODE":137.7038,"ARG_OF_PERICENTER":167.6369,"MEAN_ANOMALY":192.5052,"EPHEMERIS_TYPE":0,"CLASSIFICATION_TYPE":"U","NORAD_CAT_ID":58927,"ELEMENT_SET_NO":999,"REV_AT_EPOCH":9318,"BSTAR":0.00043092344,"MEAN_MOTION_DOT":0.00012217,"MEAN_MOTION_DDOT":0}]
